[Satellite]
VERSION=1.1
NAME=INTELSAT 905 (IS-905)
NICKNAME=INTELSAT 905 (IS-905)
TLE1=1 27438U 02027A   15054.26027156 -.00000210  00000-0  00000+0 0  9992
TLE2=2 27438   0.0312 245.9916 0002723  82.0668 253.9214  1.00272808 46578
